[{"OBJECT_NAME":"ONEWEB-0600","OBJECT_ID":"2022-166Y","EPOCH":"2025-09-07T02:08:00.619584","MEAN_MOTION":13.21825282,"ECCENTRICITY":0.00019397,"INCLINATION":87.9212,"RA_OF_ASC_NODE":300.4807,"ARG_OF_PERICENTER":91.1084,"MEAN_ANOMALY":269.0272,"EPHEMERIS_TYPE":0,"CLASSIFICATION_TYPE":"U","NORAD_CAT_ID":54664,"ELEMENT_SET_NO":999,"REV_AT_EPOCH":13411,"BSTAR":-0.00091140226,"MEAN_MOTION_DOT":-3.63e-6,"MEAN_MOTION_DDOT":0},{"OBJECT_NAME":"ONEWEB-0601","OBJECT_ID":"2022-166Z","EPOCH":"2025-09-07T01:56:36.703968","MEAN_MOTION":13.21822785,"ECCENTRICITY":0.00022607,"INCLINATION":87.922,"RA_OF_ASC_NODE":300.4988,"ARG_OF_PERICENTER":91.6714,"MEAN_ANOMALY":268.4679,"EPHEMERIS_TYPE":0,"CLASSIFICATION_TYPE":"U","NORAD_CAT_ID":54665,"ELEMENT_SET_NO":999,"REV_AT_EPOCH":13430,"BSTAR":0.00017331694,"MEAN_MOTION_DOT":8.5e-7,"MEAN_MOTION_DDOT":0},{"OBJECT_NAME":"ONEWEB-0602","OBJECT_ID":"2022-166AA","EPOCH":"2025-09-07T04:43:34.725216","MEAN_MOTION":13.21826355,"ECCENTRICITY":0.00018729,"INCLINATION":87.9225,"RA_OF_ASC_NODE":300.4775,"ARG_OF_PERICENTER":84.5174,"MEAN_ANOMALY":275.6173,"EPHEMERIS_TYPE":0,"CLASSIFICATION_TYPE":"U","NORAD_CAT_ID":54666,"ELEMENT_SET_NO":999,"REV_AT_EPOCH":13416,"BSTAR":-0.0005321045,"MEAN_MOTION_DOT":-2.07e-6,"MEAN_MOTION_DDOT":0},{"OBJECT_NAME":"ONEWEB-0603","OBJECT_ID":"2022-166AB","EPOCH":"2025-09-07T04:51:34.561440","MEAN_MOTION":13.21822337,"ECCENTRICITY":0.00020315,"INCLINATION":87.9219,"RA_OF_ASC_NODE":300.411,"ARG_OF_PERICENTER":93.0026,"MEAN_ANOMALY":267.134,"EPHEMERIS_TYPE":0,"CLASSIFICATION_TYPE":"U","NORAD_CAT_ID":54667,"ELEMENT_SET_NO":999,"REV_AT_EPOCH":13409,"BSTAR":0.0020284335,"MEAN_MOTION_DOT":8.51e-6,"MEAN_MOTION_DDOT":0},{"OBJECT_NAME":"ONEWEB-0604","OBJECT_ID":"2022-166AC","EPOCH":"2025-09-07T04:33:21.451968","MEAN_MOTION":13.2182581,"ECCENTRICITY":0.00020534,"INCLINATION":87.9225,"RA_OF_ASC_NODE":300.4379,"ARG_OF_PERICENTER":89.5282,"MEAN_ANOMALY":270.6087,"EPHEMERIS_TYPE":0,"CLASSIFICATION_TYPE":"U","NORAD_CAT_ID":54668,"ELEMENT_SET_NO":999,"REV_AT_EPOCH":13405,"BSTAR":-0.00070815169,"MEAN_MOTION_DOT":-2.79e-6,"MEAN_MOTION_DDOT":0},{"OBJECT_NAME":"ONEWEB-0605","OBJECT_ID":"2022-166AD","EPOCH":"2025-09-07T04:24:21.054528","MEAN_MOTION":13.21827019,"ECCENTRICITY":0.0002653,"INCLINATION":87.9223,"RA_OF_ASC_NODE":300.4694,"ARG_OF_PERICENTER":96.5187,"MEAN_ANOMALY":263.6249,"EPHEMERIS_TYPE":0,"CLASSIFICATION_TYPE":"U","NORAD_CAT_ID":54669,"ELEMENT_SET_NO":999,"REV_AT_EPOCH":13412,"BSTAR":0.00057082208,"MEAN_MOTION_DOT":2.49e-6,"MEAN_MOTION_DDOT":0},{"OBJECT_NAME":"ONEWEB-0606","OBJECT_ID":"2022-166AE","EPOCH":"2025-09-07T04:56:05.171424","MEAN_MOTION":13.21824563,"ECCENTRICITY":0.00018361,"INCLINATION":87.9221,"RA_OF_ASC_NODE":300.4758,"ARG_OF_PERICENTER":100.3633,"MEAN_ANOMALY":259.7708,"EPHEMERIS_TYPE":0,"CLASSIFICATION_TYPE":"U","NORAD_CAT_ID":54670,"ELEMENT_SET_NO":999,"REV_AT_EPOCH":13418,"BSTAR":0.00022424299,"MEAN_MOTION_DOT":1.06e-6,"MEAN_MOTION_DDOT":0},{"OBJECT_NAME":"ONEWEB-0607","OBJECT_ID":"2022-166AF","EPOCH":"2025-09-07T02:19:25.835520","MEAN_MOTION":13.21826963,"ECCENTRICITY":0.00021034,"INCLINATION":87.922,"RA_OF_ASC_NODE":300.4616,"ARG_OF_PERICENTER":93.0765,"MEAN_ANOMALY":267.061,"EPHEMERIS_TYPE":0,"CLASSIFICATION_TYPE":"U","NORAD_CAT_ID":54671,"ELEMENT_SET_NO":999,"REV_AT_EPOCH":13414,"BSTAR":-7.976243e-5,"MEAN_MOTION_DOT":-2.0e-7,"MEAN_MOTION_DDOT":0},{"OBJECT_NAME":"ONEWEB-0608","OBJECT_ID":"2022-166AG","EPOCH":"2025-09-07T02:28:27.495264","MEAN_MOTION":13.21823752,"ECCENTRICITY":0.0002438,"INCLINATION":87.9213,"RA_OF_ASC_NODE":300.4442,"ARG_OF_PERICENTER":89.8379,"MEAN_ANOMALY":270.3034,"EPHEMERIS_TYPE":0,"CLASSIFICATION_TYPE":"U","NORAD_CAT_ID":54672,"ELEMENT_SET_NO":999,"REV_AT_EPOCH":13415,"BSTAR":0.00017239545,"MEAN_MOTION_DOT":8.4e-7,"MEAN_MOTION_DDOT":0},{"OBJECT_NAME":"ONEWEB-0610","OBJECT_ID":"2022-166AH","EPOCH":"2025-09-07T02:01:13.412928","MEAN_MOTION":13.21824266,"ECCENTRICITY":0.00025416,"INCLINATION":87.9221,"RA_OF_ASC_NODE":300.4848,"ARG_OF_PERICENTER":89.5492,"MEAN_ANOMALY":270.5933,"EPHEMERIS_TYPE":0,"CLASSIFICATION_TYPE":"U","NORAD_CAT_ID":54673,"ELEMENT_SET_NO":999,"REV_AT_EPOCH":13405,"BSTAR":0.00017692102,"MEAN_MOTION_DOT":8.6e-7,"MEAN_MOTION_DDOT":0},{"OBJECT_NAME":"ONEWEB-0611","OBJECT_ID":"2022-166AJ","EPOCH":"2025-09-07T03:41:04.801920","MEAN_MOTION":13.21825388,"ECCENTRICITY":0.00017694,"INCLINATION":87.9219,"RA_OF_ASC_NODE":300.4671,"ARG_OF_PERICENTER":97.33,"MEAN_ANOMALY":262.8035,"EPHEMERIS_TYPE":0,"CLASSIFICATION_TYPE":"U","NORAD_CAT_ID":54674,"ELEMENT_SET_NO":999,"REV_AT_EPOCH":13405,"BSTAR":-0.00090827774,"MEAN_MOTION_DOT":-3.62e-6,"MEAN_MOTION_DDOT":0},{"OBJECT_NAME":"ONEWEB-0612","OBJECT_ID":"2022-166AK","EPOCH":"2025-09-07T02:10:17.840064","MEAN_MOTION":13.21825766,"ECCENTRICITY":0.00021094,"INCLINATION":87.9221,"RA_OF_ASC_NODE":300.4575,"ARG_OF_PERICENTER":92.7356,"MEAN_ANOMALY":267.402,"EPHEMERIS_TYPE":0,"CLASSIFICATION_TYPE":"U","NORAD_CAT_ID":54675,"ELEMENT_SET_NO":999,"REV_AT_EPOCH":13403,"BSTAR":-0.00045944664,"MEAN_MOTION_DOT":-1.77e-6,"MEAN_MOTION_DDOT":0},{"OBJECT_NAME":"ONEWEB-0615","OBJECT_ID":"2022-166AL","EPOCH":"2025-09-07T05:21:01.266912","MEAN_MOTION":13.21823318,"ECCENTRICITY":0.00019428,"INCLINATION":87.922,"RA_OF_ASC_NODE":300.4576,"ARG_OF_PERICENTER":95.1079,"MEAN_ANOMALY":265.0277,"EPHEMERIS_TYPE":0,"CLASSIFICATION_TYPE":"U","NORAD_CAT_ID":54676,"ELEMENT_SET_NO":999,"REV_AT_EPOCH":13406,"BSTAR":7.2021963e-5,"MEAN_MOTION_DOT":4.3e-7,"MEAN_MOTION_DDOT":0},{"OBJECT_NAME":"ONEWEB-0655","OBJECT_ID":"2022-166AM","EPOCH":"2025-09-07T04:42:28.832256","MEAN_MOTION":13.21827008,"ECCENTRICITY":0.00019409,"INCLINATION":87.9223,"RA_OF_ASC_NODE":300.468,"ARG_OF_PERICENTER":85.1184,"MEAN_ANOMALY":275.0172,"EPHEMERIS_TYPE":0,"CLASSIFICATION_TYPE":"U","NORAD_CAT_ID":54677,"ELEMENT_SET_NO":999,"REV_AT_EPOCH":13405,"BSTAR":-0.00011981909,"MEAN_MOTION_DOT":-3.6e-7,"MEAN_MOTION_DDOT":0},{"OBJECT_NAME":"ONEWEB-0659","OBJECT_ID":"2022-166AN","EPOCH":"2025-09-07T05:07:24.166560","MEAN_MOTION":13.21825432,"ECCENTRICITY":0.00019175,"INCLINATION":87.922,"RA_OF_ASC_NODE":300.4651,"ARG_OF_PERICENTER":98.5011,"MEAN_ANOMALY":261.634,"EPHEMERIS_TYPE":0,"CLASSIFICATION_TYPE":"U","NORAD_CAT_ID":54678,"ELEMENT_SET_NO":999,"REV_AT_EPOCH":13414,"BSTAR":-0.0010555643,"MEAN_MOTION_DOT":-4.23e-6,"MEAN_MOTION_DDOT":0},{"OBJECT_NAME":"ONEWEB-0685","OBJECT_ID":"2022-166AP","EPOCH":"2025-09-07T05:09:43.722432","MEAN_MOTION":13.2182745,"ECCENTRICITY":0.00022023,"INCLINATION":87.9221,"RA_OF_ASC_NODE":300.4606,"ARG_OF_PERICENTER":91.7668,"MEAN_ANOMALY":268.3718,"EPHEMERIS_TYPE":0,"CLASSIFICATION_TYPE":"U","NORAD_CAT_ID":54679,"ELEMENT_SET_NO":999,"REV_AT_EPOCH":13403,"BSTAR":0.00017615606,"MEAN_MOTION_DOT":8.6e-7,"MEAN_MOTION_DDOT":0}]
