ONEWEB-0600             
1 54664U 22166Y   25250.08889606 -.00000363  00000+0 -91140-3 0  9992
2 54664  87.9212 300.4807 0001939  91.1084 269.0272 13.21825282134115
ONEWEB-0601             
1 54665U 22166Z   25250.08098037  .00000085  00000+0  17332-3 0  9993
2 54665  87.9220 300.4988 0002260  91.6714 268.4679 13.21822785134308
ONEWEB-0602             
1 54666U 22166AA  25250.19692969 -.00000207  00000+0 -53210-3 0  9993
2 54666  87.9225 300.4775 0001872  84.5174 275.6173 13.21826355134167
ONEWEB-0603             
1 54667U 22166AB  25250.20248335  .00000851  00000+0  20284-2 0  9997
2 54667  87.9219 300.4110 0002031  93.0026 267.1340 13.21822337134093
ONEWEB-0604             
1 54668U 22166AC  25250.18983162 -.00000279  00000+0 -70815-3 0  9991
2 54668  87.9225 300.4379 0002053  89.5282 270.6087 13.21825810134058
ONEWEB-0605             
1 54669U 22166AD  25250.18357702  .00000249  00000+0  57082-3 0  9993
2 54669  87.9223 300.4694 0002653  96.5187 263.6249 13.21827019134128
ONEWEB-0606             
1 54670U 22166AE  25250.20561541  .00000106  00000+0  22424-3 0  9990
2 54670  87.9221 300.4758 0001836 100.3633 259.7708 13.21824563134184
ONEWEB-0607             
1 54671U 22166AF  25250.09682680 -.00000020  00000+0 -79762-4 0  9991
2 54671  87.9220 300.4616 0002103  93.0765 267.0610 13.21826963134145
ONEWEB-0608             
1 54672U 22166AG  25250.10309601  .00000084  00000+0  17240-3 0  9993
2 54672  87.9213 300.4442 0002438  89.8379 270.3034 13.21823752134151
ONEWEB-0610             
1 54673U 22166AH  25250.08418302  .00000086  00000+0  17692-3 0  9993
2 54673  87.9221 300.4848 0002541  89.5492 270.5933 13.21824266134059
ONEWEB-0611             
1 54674U 22166AJ  25250.15352780 -.00000362  00000+0 -90828-3 0  9990
2 54674  87.9219 300.4671 0001769  97.3300 262.8035 13.21825388134050
ONEWEB-0612             
1 54675U 22166AK  25250.09048426 -.00000177  00000+0 -45945-3 0  9997
2 54675  87.9221 300.4575 0002109  92.7356 267.4020 13.21825766134039
ONEWEB-0615             
1 54676U 22166AL  25250.22293133  .00000043  00000+0  72022-4 0  9997
2 54676  87.9220 300.4576 0001942  95.1079 265.0277 13.21823318134065
ONEWEB-0655             
1 54677U 22166AM  25250.19616704 -.00000036  00000+0 -11982-3 0  9998
2 54677  87.9223 300.4680 0001940  85.1184 275.0172 13.21827008134053
ONEWEB-0659             
1 54678U 22166AN  25250.21347415 -.00000423  00000+0 -10556-2 0  9997
2 54678  87.9220 300.4651 0001917  98.5011 261.6340 13.21825432134147
ONEWEB-0685             
1 54679U 22166AP  25250.21508938  .00000086  00000+0  17616-3 0  9995
2 54679  87.9221 300.4606 0002202  91.7668 268.3718 13.21827450134033
